{
  "norad_id": 66935,
  "name": "STARLINK-36127",
  "history": [
    {
      "epoch": "2026-03-28T20:58:39.548640",
      "apogee_km": 476.0467166294593,
      "perigee_km": 474.3934127711709,
      "latitude_deg": 37.05268936306425,
      "longitude_deg": -122.58939040009864,
      "semi_major_axis_km": 6853.357064700315,
      "eccentricity": 0.00012062,
      "inclination_deg": 53.1584,
      "raan_deg": 269.3638,
      "arg_perigee_deg": 62.5944,
      "mean_anomaly_deg": 297.5179,
      "mean_motion_rev_day": 15.30198327
    }
  ]
}